1 42928U 17051A   18083.44302556  .00452601 -43280-5  54615-3 0  9993
2 42928  19.1668 218.7821 2589894 238.6115 146.4361 10.48956863 19991
1 42928U 17051A   18083.65226590  .00453251 -43411-5  54761-3 0  9999
2 42928  19.1653 218.0517 2588960 239.9528 216.6496 10.49146825 20019
1 42928U 17051A   18083.86443002 +.00453753 -43532-5 +54759-3 0  9999
2 42928 019.1672 217.3167 2588072 241.3051 298.0538 10.49339429020032
1 42928U 17051A   18084.49922998 +.00460455 -43891-5 +56044-3 0  9999
2 42928 019.1701 215.0880 2585053 245.3818 176.7737 10.49930082020106
1 42928U 17051A   18084.70671706 +.00460696 -43999-5 +55830-3 0  9999
2 42928 019.1702 214.3666 2584256 246.7102 241.0894 10.50120167020125
1 42928U 17051A   18084.96800970  .00464168 -44127-5  56549-3 0  9994
2 42928  19.1747 213.4751 2582937 248.3608 149.0270 10.50370129 20155
1 42928U 17051A   18085.44079366 +.00478522 -44358-5 +56677-3 0  9992
2 42928 019.1727 211.8063 2581403 251.4028 137.2169 10.50839750020201
1 42928U 17051A   18085.75911012 +.00476822 -44500-5 +56001-3 0  9990
2 42928 019.1726 210.6869 2580194 253.4509 261.5771 10.51137678020237
1 42928U 17051A   18086.27919547  .00476646 -44711-5  55468-3 0  9993
2 42928  19.1751 208.8632 2578077 256.7978  70.0847 10.51630574 20280
1 42928U 17051A   18086.60777650 +.00475937 -44840-5 +55044-3 0  9992
2 42928 019.1735 207.7067 2576759 258.9182 234.2226 10.51939720020323
